RANGE-A                 
1 43773U 18099R   26068.70590171  .00005536  00000+0  32166-3 0  9992
2 43773  97.4107 114.1927 0009674 340.4473  19.6386 15.12458640397457
STARLINK-4612           
1 53750U 22107BC  26068.84305576 -.00000211  00000+0  48533-5 0  9994
2 53750  53.2153 263.6409 0001300  83.9132 276.2008 15.08836007194626
